0 CZ-4C DEB
1 37568U 10038D   13282.30470302  .00002477  00000-0  60657-3 0  3852
2 37568 097.9448 214.1888 0199403 261.0626 252.9840 14.42004714163190
0 CZ-4C DEB
1 37568U 10038D   13283.61738546  .00002314  00000-0  56739-3 0  3861
2 37568 097.9448 215.4126 0199391 257.0241 227.4378 14.42008468163387
0 CZ-4C DEB
1 37568U 10038D   13286.79659443  .00001993  00000-0  49015-3 0  3884
2 37568 097.9456 218.3760 0199411 247.2443 171.5859 14.42020056163830
0 CZ-4C DEB
1 37568U 10038D   13288.04571940  .00003131  00000-0  76302-3 0  3895
2 37568 097.9461 219.5403 0199409 243.4016 176.1751 14.42028642164016
0 CZ-4C DEB
1 37568U 10038D   13289.08605370  .00002750  00000-0  67148-3 0  3901
2 37568 097.9465 220.5100 0199432 240.1999 176.9007 14.42033420164164
0 CZ-4C DEB
1 37568U 10038D   13290.62563894  .00002486  00000-0  60798-3 0  3918
2 37568 097.9468 221.9451 0199463 235.4631 249.4346 14.42041202164399
0 CZ-4C DEB
1 37568U 10038D   13291.66561582  .00002383  00000-0  58324-3 0  3924
2 37568 097.9470 222.9145 0199487 232.2668 248.3466 14.42044828164549
0 CZ-4C DEB
1 37568U 10038D   13292.75823706  .00002459  00000-0  60136-3 0  3933
2 37568 097.9470 223.9332 0199510 228.9088 160.5708 14.42049389164690
0 CZ-4C DEB
1 37568U 10038D   13294.77035603  .00002667  00000-0  65078-3 0  3940
2 37568 097.9469 225.8093 0199580 222.7312 166.3083 14.42058460164984
0 CZ-4C DEB
1 37568U 10038D   13296.09409845  .00002888  00000-0  70345-3 0  3959
2 37568 097.9468 227.0436 0199633 218.6637 198.4395 14.42062319165173
